NORAD_CAT_ID,OBJECT_NAME,OBJECT_TYPE,EPOCH,MEAN_MOTION,ECCENTRICITY,INCLINATION,RA_OF_ASC_NODE,ARG_OF_PERICENTER,MEAN_ANOMALY,BSTAR,MEAN_MOTION_DOT,MEAN_MOTION_DDOT,TLE_LINE0,TLE_LINE1,TLE_LINE2,SEMIMAJOR_AXIS,PERIOD,APOGEE,PERIGEE,DECAYED
53631.0,STARLINK-4599,PAYLOAD,2022-11-08 10:00:01,15.08650495,0.0001931,53.217,298.2687,37.5,327.5783,0.022702,0.00378985,0.0,0 STARLINK-4599,1 53631U 22104AV  22312.41668981  .00378985  00000-0  22702-1 0  9994,2 53631  53.2170 298.2687 0001931  37.5000 327.5783 15.08650495 11302,6918.46,95.45,541.661,538.989,0.0
53631.0,STARLINK-4599,PAYLOAD,2022-11-08 14:00:01,15.08813644,0.0001794,53.2162,297.5198,31.1277,159.6007,0.0010375,0.00016251,0.0,0 STARLINK-4599,1 53631U 22104AV  22312.58334491  .00016251  00000-0  10375-2 0  9997,2 53631  53.2162 297.5198 0001794  31.1277 159.6007 15.08813644 11327,6917.9609999999975,95.439,541.067,538.585,0.0
53631.0,STARLINK-4599,PAYLOAD,2022-11-08 22:00:00,15.0884692,0.0001715,53.2167,296.0213,37.9807,164.33599999999996,0.0045293,0.00072552,0.0,0 STARLINK-4599,1 53631U 22104AV  22312.91667824  .00072552  00000-0  45293-2 0  9996,2 53631  53.2167 296.0213 0001715  37.9807 164.3360 15.08846920 11373,6917.859,95.437,540.911,538.538,0.0
53631.0,STARLINK-4599,PAYLOAD,2022-11-09 06:00:00,15.08861302,0.0001996,53.2165,294.5275,38.4874,175.458,-0.00032805,-5.509e-05,0.0,0 STARLINK-4599,1 53631U 22104AV  22313.25001157 -.00005509  00000-0 -32805-3 0  9991,2 53631  53.2165 294.5275 0001996  38.4874 175.4580 15.08861302 11427,6917.815,95.436,541.061,538.299,0.0
53631.0,STARLINK-4599,PAYLOAD,2022-11-09 14:00:01,15.08866314,0.0001928,53.2165,293.0303,36.6313,188.9282,-0.001935,-0.00030974,0.0,0 STARLINK-4599,1 53631U 22104AV  22313.58334491 -.00030974  00000-0 -19350-2 0  9990,2 53631  53.2165 293.0303 0001928  36.6313 188.9282 15.08866314  1308,6917.8,95.436,540.999,538.331,0.0
53631.0,STARLINK-4599,PAYLOAD,2022-11-09 22:00:01,15.0885033,0.0001803,53.2167,291.5327,41.3717,195.8597,-0.0018397,-0.00029456,0.0,0 STARLINK-4599,1 53631U 22104AV  22313.91668981 -.00029456  00000-0 -18397-2 0  9994,2 53631  53.2167 291.5327 0001803  41.3717 195.8597 15.08850330  1309,6917.849,95.437,540.961,538.467,0.0
53631.0,STARLINK-4599,PAYLOAD,2022-11-10 06:00:00,15.08800857,0.0002064,53.2169,290.0381,38.1872,210.5829,0.00068825,0.00010671,0.0,0 STARLINK-4599,1 53631U 22104AV  22314.25001157  .00010671  00000-0  68825-3 0  9997,2 53631  53.2169 290.0381 0002064  38.1872 210.5829 15.08800857 11573,6918.0,95.44,541.293,538.437,0.0
53631.0,STARLINK-4599,PAYLOAD,2022-11-10 14:00:01,15.08839359,0.0001976,53.217,288.5411,37.2622,223.0566,-0.0044727,-0.00070773,0.0,0 STARLINK-4599,1 53631U 22104AV  22314.58334491 -.00070773  00000-0 -44727-2 0  9998,2 53631  53.2170 288.5411 0001976  37.2622 223.0566 15.08839359  1301,6917.882,95.438,541.114,538.38,0.0
53631.0,STARLINK-4599,PAYLOAD,2022-11-10 22:00:00,15.0878155,0.0001903,53.2174,287.0438,42.7812,229.1019,0.0048501,0.00077628,0.0,0 STARLINK-4599,1 53631U 22104AV  22314.91667824  .00077628  00000-0  48501-2 0  9992,2 53631  53.2174 287.0438 0001903  42.7812 229.1019 15.08781550  1309,6918.059,95.441,541.241,538.6080000000002,0.0
53631.0,STARLINK-4599,PAYLOAD,2022-11-11 08:00:01,15.0882185,0.0002189,53.2176,285.1755,40.3653,335.9742,0.0034415,0.00054884,0.0,0 STARLINK-4599,1 53631U 22104AV  22315.33334491  .00054884  00000-0  34415-2 0  9998,2 53631  53.2176 285.1755 0002189  40.3653 335.9742 15.08821850 11742,6917.936,95.439,541.315,538.2869999999998,0.0
53631.0,STARLINK-4599,PAYLOAD,2022-11-11 14:00:01,15.0887005,0.0002076,53.2176,284.0521,40.8214,254.2074,-0.0014558,-0.00023402,0.0,0 STARLINK-4599,1 53631U 22104AV  22315.58334491 -.00023402  00000-0 -14558-2 0  9995,2 53631  53.2176 284.0521 0002076  40.8214 254.2074 15.08870050  1302,6917.7890000000025,95.436,541.09,538.217,0.0
53631.0,STARLINK-4599,PAYLOAD,2022-11-11 22:00:00,15.08868906,0.0001951,53.2179,282.5549,45.6101,261.0407,-0.00045788,-7.574e-05,0.0,0 STARLINK-4599,1 53631U 22104AV  22315.91667824 -.00007574  00000-0 -45788-3 0  9993,2 53631  53.2179 282.5549 0001951  45.6101 261.0407 15.08868906  1300,6917.792,95.436,541.007,538.307,0.0
53631.0,STARLINK-4599,PAYLOAD,2022-11-12 14:00:01,15.0888357,0.0001983,53.2179,279.563,40.4394,289.465,-0.0028695,-0.00045722,0.0,0 STARLINK-4599,1 53631U 22104AV  22316.58334491 -.00045722  00000-0 -28695-2 0  9992,2 53631  53.2179 279.5630 0001983  40.4394 289.4650 15.08883570  1307,6917.746999999999,95.435,540.984,538.24,0.0
53631.0,STARLINK-4599,PAYLOAD,2022-11-12 22:00:00,15.08857734,0.0001907,53.2182,278.0661,45.9055,295.6223,-0.00051305,-8.448e-05,0.0,0 STARLINK-4599,1 53631U 22104AV  22316.91667824 -.00008448  00000-0 -51305-3 0  9997,2 53631  53.2182 278.0661 0001907  45.9055 295.6223 15.08857734  1307,6917.826,95.436,541.01,538.372,0.0
53631.0,STARLINK-4599,PAYLOAD,2022-11-13 06:00:02,15.08847428,0.0002106,53.218,276.5715,41.3945,311.8076,-0.0015783,-0.00025325,0.0,0 STARLINK-4599,1 53631U 22104AV  22317.25002315 -.00025325  00000-0 -15783-2 0  9995,2 53631  53.2180 276.5715 0002106  41.3945 311.8076 15.08847428 12036,6917.858,95.437,541.18,538.266,0.0
53631.0,STARLINK-4599,PAYLOAD,2022-11-13 14:00:01,15.08849465,0.0001905,53.2178,275.0741,40.2086,324.5222,-0.0038149,-0.00060509,0.0,0 STARLINK-4599,1 53631U 22104AV  22317.58334491 -.00060509  00000-0 -38149-2 0  9998,2 53631  53.2178 275.0741 0001905  40.2086 324.5222 15.08849465  1301,6917.851,95.437,541.034,538.399,0.0
53631.0,STARLINK-4599,PAYLOAD,2022-11-13 22:00:00,15.08816692,0.0001773,53.2179,273.5775,43.7119,332.5956,0.0014157,0.000223,0.0,0 STARLINK-4599,1 53631U 22104AV  22317.91667824  .00022300  00000-0  14157-2 0  9992,2 53631  53.2179 273.5775 0001773  43.7119 332.5956 15.08816692  1309,6917.9519999999975,95.439,541.043,538.59,0.0
53631.0,STARLINK-4599,PAYLOAD,2022-11-14 14:00:01,15.0885864,0.0001828,53.2175,270.5849,41.3953,358.0694,-0.0022414,-0.00035802,0.0,0 STARLINK-4599,1 53631U 22104AV  22318.58334491 -.00035802  00000-0 -22414-2 0  9995,2 53631  53.2175 270.5849 0001828  41.3953 358.0694 15.08858640 12230,6917.823,95.436,540.953,538.424,0.0
53631.0,STARLINK-4599,PAYLOAD,2022-11-14 22:00:00,15.08831623,0.0001724,53.2175,269.087,43.5639,7.5048,0.0015717,0.00024808,0.0,0 STARLINK-4599,1 53631U 22104AV  22318.91667824  .00024808  00000-0  15717-2 0  9991,2 53631  53.2175 269.0870 0001724  43.5639   7.5048 15.08831623  1304,6917.906,95.438,540.964,538.578,0.0
53631.0,STARLINK-4599,PAYLOAD,2022-11-15 08:00:01,15.0883191,0.0001879,53.2171,267.2188,40.0081,115.6144,0.0016867,0.00026652,0.0,0 STARLINK-4599,1 53631U 22104AV  22319.33335648  .00026652  00000-0  16867-2 0  9990,2 53631  53.2171 267.2188 0001879  40.0081 115.6144 15.08831910 12349,6917.905,95.438,541.07,538.47,0.0
53631.0,STARLINK-4599,PAYLOAD,2022-11-15 14:00:01,15.08834863,0.0001865,53.2167,266.0964,45.0435,29.209,-0.0010359,-0.00016735,0.0,0 STARLINK-4599,1 53631U 22104AV  22319.58334491 -.00016735  00000-0 -10359-2 0  9995,2 53631  53.2167 266.0964 0001865  45.0435  29.2090 15.08834863  1300,6917.896,95.438,541.0509999999998,538.471,0.0
53631.0,STARLINK-4599,PAYLOAD,2022-11-15 22:00:00,15.08842885,0.0001868,53.2167,264.5995,49.4047,36.4246,0.00032593,4.903e-05,0.0,0 STARLINK-4599,1 53631U 22104AV  22319.91667824  .00004903  00000-0  32593-3 0  9998,2 53631  53.2167 264.5995 0001868  49.4047  36.4246 15.08842885  1303,6917.871999999999,95.437,541.029,538.444,0.0
53631.0,STARLINK-4599,PAYLOAD,2022-11-16 00:00:00,15.08851022,0.00019,53.2169,264.2258,48.0763,130.6512,-0.00082575,-0.0001341,0.0,0 STARLINK-4599,1 53631U 22104AV  22320.00001157 -.00013410  00000-0 -82575-3 0  9991,2 53631  53.2169 264.2258 0001900  48.0763 130.6512 15.08851022 12444,6917.847,95.437,541.026,538.3969999999998,0.0
53631.0,STARLINK-4599,PAYLOAD,2022-11-16 14:00:01,15.08858075,0.0001689,53.2174,261.605,42.4836,66.6098,-0.0020262,-0.00032407,0.0,0 STARLINK-4599,1 53631U 22104AV  22320.58335648 -.00032407  00000-0 -20262-2 0  9990,2 53631  53.2174 261.6050 0001689  42.4836  66.6098 15.08858075  1309,6917.825,95.436,540.859,538.5219999999998,0.0
53631.0,STARLINK-4599,PAYLOAD,2022-11-16 22:00:08,15.08836806,0.0001616,53.2175,260.1073,44.63800000000001,76.4372,-2.5544e-06,-3.29e-06,0.0,0 STARLINK-4599,1 53631U 22104AV  22320.91675926 -.00000329  00000-0 -25544-5 0  9992,2 53631  53.2175 260.1073 0001616  44.6380  76.4372 15.08836806  1309,6917.89,95.438,540.873,538.637,0.0
53631.0,STARLINK-4599,PAYLOAD,2022-11-17 06:00:00,15.08835946,0.0002049,53.2163,258.6161,41.9353,90.3007,0.0011442,0.00017967,0.0,0 STARLINK-4599,1 53631U 22104AV  22321.25001157  .00017967  00000-0  11442-2 0  9992,2 53631  53.2163 258.6161 0002049  41.9353  90.3007 15.08835946 12639,6917.893,95.438,541.175,538.34,0.0
53631.0,STARLINK-4599,PAYLOAD,2022-11-17 14:00:01,15.08829563,0.000189,53.2164,257.118,43.7083,100.132,5.8329e-05,6.4e-06,0.0,0 STARLINK-4599,1 53631U 22104AV  22321.58334491  .00000640  00000-0  58329-4 0  9995,2 53631  53.2164 257.1180 0001890  43.7083 100.1320 15.08829563  1306,6917.9119999999975,95.438,541.085,538.47,0.0
53631.0,STARLINK-4599,PAYLOAD,2022-11-17 22:00:00,15.08863471,0.000189,53.2168,255.6198,46.8778,108.5369,-0.0033875,-0.00053833,0.0,0 STARLINK-4599,1 53631U 22104AV  22321.91667824 -.00053833  00000-0 -33875-2 0  9992,2 53631  53.2168 255.6198 0001890  46.8778 108.5369 15.08863471  1308,6917.809,95.436,540.981,538.366,0.0
53631.0,STARLINK-4599,PAYLOAD,2022-11-18 14:00:01,15.0882157,0.0001867,53.2168,252.6287,41.3775,137.2438,0.0012224,0.0001921,0.0,0 STARLINK-4599,1 53631U 22104AV  22322.58334491  .00019210  00000-0  12224-2 0  9991,2 53631  53.2168 252.6287 0001867  41.3775 137.2438 15.08821570 12835,6917.937,95.439,541.0930000000002,538.51,0.0
